{
    "links": {
        "self": "http://www.neowsapp.com/rest/v1/neo/3694522?api_key=iIulBulltgU6a56xZRHN4H3l9WmuAYTsLGpBGhQ2"
    },
    "id": "3694522",
    "neo_reference_id": "3694522",
    "name": "(2014 UA58)",
    "designation": "2014 UA58",
    "nasa_jpl_url": "http://ssd.jpl.nasa.gov/sbdb.cgi?sstr=3694522",
    "absolute_magnitude_h": 26.6,
    "estimated_diameter": {
        "kilometers": {
            "estimated_diameter_min": 0.0127219879,
            "estimated_diameter_max": 0.0284472297
        },
        "meters": {
            "estimated_diameter_min": 12.7219878539,
            "estimated_diameter_max": 28.4472296503
        },
        "miles": {
            "estimated_diameter_min": 0.0079050743,
            "estimated_diameter_max": 0.0176762835
        },
        "feet": {
            "estimated_diameter_min": 41.7388066307,
            "estimated_diameter_max": 93.330808926
        }
    },
    "is_potentially_hazardous_asteroid": false,
    "close_approach_data": [
        {
            "close_approach_date": "2014-11-01",
            "close_approach_date_full": "2014-Nov-01 21:56",
            "epoch_date_close_approach": 1414878960000,
            "relative_velocity": {
                "kilometers_per_second": "11.2499523629",
                "kilometers_per_hour": "40499.8285064522",
                "miles_per_hour": "25165.0184405786"
            },
            "miss_distance": {
                "astronomical": "0.0340660004",
                "lunar": "13.2516741556",
                "kilometers": "5096201.099259148",
                "miles": "3166632.5243783224"
            },
            "orbiting_body": "Earth"
        }
    ],
    "orbital_data": {
        "orbit_id": "4",
        "orbit_determination_date": "2019-07-19 05:25:50",
        "first_observation_date": "2014-10-25",
        "last_observation_date": "2014-10-29",
        "data_arc_in_days": 4,
        "observations_used": 19,
        "orbit_uncertainty": "8",
        "minimum_orbit_intersection": ".0288475",
        "jupiter_tisserand_invariant": "3.622",
        "epoch_osculation": "2456957.5",
        "eccentricity": ".5413704446201604",
        "semi_major_axis": "2.011606291513179",
        "inclination": "7.833748013862667",
        "ascending_node_longitude": "211.013982352029",
        "orbital_period": "1042.108419611183",
        "perihelion_distance": ".9225820990759774",
        "perihelion_argument": "230.8348371364943",
        "aphelion_distance": "3.100630483950381",
        "perihelion_time": "2456995.507372491341",
        "mean_anomaly": "346.8702201811325",
        "mean_motion": ".3454534991035944",
        "equinox": "J2000",
        "orbit_class": {
            "orbit_class_type": "APO",
            "orbit_class_description": "Near-Earth asteroid orbits which cross the Earth’s orbit similar to that of 1862 Apollo",
            "orbit_class_range": "a (semi-major axis) > 1.0 AU; q (perihelion) < 1.017 AU"
        }
    },
    "is_sentry_object": false
}